NORAD_CAT_ID,OBJECT_NAME,OBJECT_TYPE,EPOCH,MEAN_MOTION,ECCENTRICITY,INCLINATION,RA_OF_ASC_NODE,ARG_OF_PERICENTER,MEAN_ANOMALY,BSTAR,MEAN_MOTION_DOT,MEAN_MOTION_DDOT,TLE_LINE0,TLE_LINE1,TLE_LINE2,SEMIMAJOR_AXIS,PERIOD,APOGEE,PERIGEE,DECAYED
51802.0,STARLINK-3557,PAYLOAD,2022-05-07 14:00:01,15.09426962,0.0001719,53.2173,163.4152,46.6379,211.9734,-0.044357,-0.0067108,0.0,0 STARLINK-3557,1 51802U 22017AL  22127.58334491 -.00671080  00000-0 -44357-1 0  9997,2 51802  53.2173 163.4152 0001719  46.6379 211.9734 15.09426962  3648,6916.087,95.4,539.141,536.763,0.0
51802.0,STARLINK-3557,PAYLOAD,2022-05-07 20:00:01,15.08920252,0.0001763,53.2175,162.2911,43.6782,134.0198,-0.0081967999999999,-0.00128703,0.0,0 STARLINK-3557,1 51802U 22017AL  22127.83334491 -.00128703  00000-0 -81968-2 0  9994,2 51802  53.2175 162.2911 0001763  43.6782 134.0198 15.08920252 12283,6917.635,95.432,540.72,538.281,0.0
51802.0,STARLINK-3557,PAYLOAD,2022-05-07 22:00:00,15.08847701,0.0001749,53.2174,161.9166,46.8417,223.7917,-0.0010930999999999,-0.00017646,0.0,0 STARLINK-3557,1 51802U 22017AL  22127.91667824 -.00017646  00000-0 -10931-2 0  9997,2 51802  53.2174 161.9166 0001749  46.8417 223.7917 15.08847701  3635,6917.857,95.437,540.932,538.512,0.0
51802.0,STARLINK-3557,PAYLOAD,2022-05-08 04:00:00,15.08835915,0.0001836,53.2179,160.792,40.551,148.7823,0.00021997,3.214e-05,0.0,0 STARLINK-3557,1 51802U 22017AL  22128.16667824  .00003214  00000-0  21997-3 0  9994,2 51802  53.2179 160.7920 0001836  40.5510 148.7823 15.08835915 12341,6917.893,95.438,541.028,538.488,0.0
51802.0,STARLINK-3557,PAYLOAD,2022-05-08 14:00:01,15.0882622,0.0001986,53.2188,158.9162,41.8151,252.0118,0.001753,0.00027711,0.0,0 STARLINK-3557,1 51802U 22017AL  22128.58334491  .00027711  00000-0  17530-2 0  9996,2 51802  53.2188 158.9162 0001986  41.8151 252.0118 15.08826220  3625,6917.9230000000025,95.438,541.161,538.414,0.0
51802.0,STARLINK-3557,PAYLOAD,2022-05-08 22:00:00,15.08817908,0.0001833,53.2189,157.4181,47.4509,257.9751,0.0026808,0.0004261,0.0,0 STARLINK-3557,1 51802U 22017AL  22128.91667824  .00042610  00000-0  26808-2 0  9995,2 51802  53.2189 157.4181 0001833  47.4509 257.9751 15.08817908  3632,6917.948,95.439,541.081,538.545,0.0
51802.0,STARLINK-3557,PAYLOAD,2022-05-09 12:00:00,15.088217000000002,0.0002078,53.219,154.8018,43.1616,192.5566,0.0028809,0.00045837,0.0,0 STARLINK-3557,1 51802U 22017AL  22129.50001157  .00045837  00000-0  28809-2 0  9999,2 51802  53.2190 154.8018 0002078  43.1616 192.5566 15.08821700 12541,6917.936,95.439,541.239,538.364,0.0
51802.0,STARLINK-3557,PAYLOAD,2022-05-09 14:00:01,15.08839166,0.000205,53.2186,154.4274,42.3683,286.3056,0.0011246,0.00017655,0.0,0 STARLINK-3557,1 51802U 22017AL  22129.58335648  .00017655  00000-0  11246-2 0  9996,2 51802  53.2186 154.4274 0002050  42.3683 286.3056 15.08839166  3632,6917.8830000000025,95.438,541.1659999999998,538.33,0.0
51802.0,STARLINK-3557,PAYLOAD,2022-05-09 22:00:00,15.08826244,0.0001905,53.2188,152.9293,48.0498,292.1748,0.0030038,0.00047824,0.0,0 STARLINK-3557,1 51802U 22017AL  22129.91667824  .00047824  00000-0  30038-2 0  9998,2 51802  53.2188 152.9293 0001905  48.0498 292.1748 15.08826244  3628,6917.922,95.438,541.105,538.47,0.0
51802.0,STARLINK-3557,PAYLOAD,2022-05-10 04:00:00,15.08866378,0.0001992,53.2191,151.8078,48.8913,210.0222,-0.0012094,-0.00019498,0.0,0 STARLINK-3557,1 51802U 22017AL  22130.16667824 -.00019498  00000-0 -12094-2 0  9997,2 51802  53.2191 151.8078 0001992  48.8913 210.0222 15.08866378 12647,6917.8,95.436,541.043,538.2869999999998,0.0
51802.0,STARLINK-3557,PAYLOAD,2022-05-10 14:00:01,15.08857503,0.0002121,53.2188,149.9384,42.1584,321.271,-0.00015594,-2.771e-05,0.0,0 STARLINK-3557,1 51802U 22017AL  22130.58334491 -.00002771  00000-0 -15594-3 0  9999,2 51802  53.2188 149.9384 0002121  42.1584 321.2710 15.08857503  3622,6917.8269999999975,95.436,541.159,538.225,0.0
51802.0,STARLINK-3557,PAYLOAD,2022-05-10 18:00:00,15.088803899999998,0.0002019,53.2191,149.1892,44.7947,144.4386,-0.0045257,-0.00071679,0.0,0 STARLINK-3557,1 51802U 22017AL  22130.75001157 -.00071679  00000-0 -45257-2 0  9999,2 51802  53.2191 149.1892 0002019  44.7947 144.4386 15.08880390  3612,6917.757,95.435,541.019,538.225,0.0
51802.0,STARLINK-3557,PAYLOAD,2022-05-11 20:00:01,15.08823396,0.0002027,53.2194,144.3258,45.7427,271.1828,0.001584,0.00025,0.0,0 STARLINK-3557,1 51802U 22017AL  22131.83334491  .00025000  00000-0  15840-2 0  9999,2 51802  53.2194 144.3258 0002027  45.7427 271.1828 15.08823396 12893,6917.931,95.439,541.198,538.394,0.0
51802.0,STARLINK-3557,PAYLOAD,2022-05-11 22:00:00,15.08815377,0.0001998,53.2192,143.9514,46.8097,3.0153,0.0029826,0.00047468,0.0,0 STARLINK-3557,1 51802U 22017AL  22131.91667824  .00047468  00000-0  29826-2 0  9998,2 51802  53.2192 143.9514 0001998  46.8097   3.0153 15.08815377  1309,6917.956,95.439,541.203,538.438,0.0
51802.0,STARLINK-3557,PAYLOAD,2022-05-12 14:00:01,15.08850854,0.0002239,53.2191,140.9606,42.5216,30.4869,-0.00026026,-4.429e-05,0.0,0 STARLINK-3557,1 51802U 22017AL  22132.58334491 -.00004429  00000-0 -26026-3 0  9995,2 51802  53.2191 140.9606 0002239  42.5216  30.4869 15.08850854  1309,6917.847,95.437,541.261,538.163,0.0
51802.0,STARLINK-3557,PAYLOAD,2022-05-12 16:00:00,15.08863082,0.0002183,53.219,140.5871,44.1896,121.7163,-0.0020017,-0.00032025,0.0,0 STARLINK-3557,1 51802U 22017AL  22132.66667824 -.00032025  00000-0 -20017-2 0  9999,2 51802  53.2190 140.5871 0002183  44.1896 121.7163 15.08863082 13017,6917.81,95.436,541.185,538.165,0.0
51802.0,STARLINK-3557,PAYLOAD,2022-05-12 22:00:00,15.088311,0.0002058,53.2194,139.4623,48.3997,36.2273,0.0029125,0.00046359,0.0,0 STARLINK-3557,1 51802U 22017AL  22132.91667824  .00046359  00000-0  29125-2 0  9999,2 51802  53.2194 139.4623 0002058  48.3997  36.2273 15.08831100  1309,6917.908,95.438,541.196,538.349,0.0
51802.0,STARLINK-3557,PAYLOAD,2022-05-13 04:00:00,15.08872079,0.0002153,53.2196,138.3411,47.3012,316.0199,-0.0017305,-0.00027749,0.0,0 STARLINK-3557,1 51802U 22017AL  22133.16667824 -.00027749  00000-0 -17305-2 0  9998,2 51802  53.2196 138.3411 0002153  47.3012 316.0199 15.08872079 13092,6917.781999999997,95.436,541.137,538.158,0.0
51802.0,STARLINK-3557,PAYLOAD,2022-05-13 14:00:01,15.08863733,0.0002205,53.219,136.4711,42.9892,64.8514,-0.0030644,-0.00048762,0.0,0 STARLINK-3557,1 51802U 22017AL  22133.58334491 -.00048762  00000-0 -30644-2 0  9994,2 51802  53.2190 136.4711 0002205  42.9892  64.8514 15.08863733  1300,6917.808000000001,95.436,541.198,538.1469999999998,0.0
51802.0,STARLINK-3557,PAYLOAD,2022-05-13 22:00:00,15.08814033,0.0001994,53.2192,134.9733,47.8404,71.6077,0.0025174,0.00039976,0.0,0 STARLINK-3557,1 51802U 22017AL  22133.91667824  .00039976  00000-0  25174-2 0  9997,2 51802  53.2192 134.9733 0001994  47.8404  71.6077 15.08814033  1305,6917.96,95.439,541.2040000000002,538.445,0.0
51802.0,STARLINK-3557,PAYLOAD,2022-05-14 04:00:00,15.08852426,0.0002096,53.2194,133.8522,46.5192,351.6102,-0.0020046,-0.00032062,0.0,0 STARLINK-3557,1 51802U 22017AL  22134.16667824 -.00032062  00000-0 -20046-2 0  9999,2 51802  53.2194 133.8522 0002096  46.5192 351.6102 15.08852426 13249,6917.842,95.437,541.1569999999998,538.257,0.0
51802.0,STARLINK-3557,PAYLOAD,2022-05-14 12:00:00,15.08831593,0.0002193,53.2188,132.3565,42.9623,6.7691,0.0017352999999999,0.00027431,0.0,0 STARLINK-3557,1 51802U 22017AL  22134.50001157  .00027431  00000-0  17353-2 0  9997,2 51802  53.2188 132.3565 0002193  42.9623   6.7691 15.08831593 13298,6917.906,95.438,541.288,538.254,0.0
51802.0,STARLINK-3557,PAYLOAD,2022-05-14 14:00:01,15.0885351,0.0002171,53.2187,131.9819,44.4256,98.1986,-0.00097103,-0.00015715,0.0,0 STARLINK-3557,1 51802U 22017AL  22134.58334491 -.00015715  00000-0 -97103-3 0  9991,2 51802  53.2187 131.9819 0002171  44.4256  98.1986 15.08853510  1303,6917.839,95.437,541.206,538.202,0.0
51802.0,STARLINK-3557,PAYLOAD,2022-05-14 22:00:00,15.08832179,0.0002002,53.2189,130.4842,50.3787,103.8535,0.0024039,0.0003817,0.0,0 STARLINK-3557,1 51802U 22017AL  22134.91667824  .00038170  00000-0  24039-2 0  9992,2 51802  53.2189 130.4842 0002002  50.3787 103.8535 15.08832179  1305,6917.904,95.438,541.154,538.384,0.0
51802.0,STARLINK-3557,PAYLOAD,2022-05-15 04:00:00,15.08838667,0.0002029,53.2189,129.3634,46.3023,26.5687,-0.0018198,-0.00029133,0.0,0 STARLINK-3557,1 51802U 22017AL  22135.16667824 -.00029133  00000-0 -18198-2 0  9990,2 51802  53.2189 129.3634 0002029  46.3023  26.5687 15.08838667 13397,6917.884,95.438,541.153,538.346,0.0
51802.0,STARLINK-3557,PAYLOAD,2022-05-15 14:00:01,15.08841583,0.0002091,53.2184,127.4929,44.6779,132.726,-0.0013379,-0.00021519,0.0,0 STARLINK-3557,1 51802U 22017AL  22135.58335648 -.00021519  00000-0 -13379-2 0  9998,2 51802  53.2184 127.4929 0002091  44.6779 132.7260 15.08841583  1302,6917.876,95.437,541.187,538.294,0.0
51802.0,STARLINK-3557,PAYLOAD,2022-05-15 20:00:01,15.08810639,0.0001933,53.2185,126.3695,48.944,47.0977,0.0029026,0.00046173,0.0,0 STARLINK-3557,1 51802U 22017AL  22135.83334491  .00046173  00000-0  29026-2 0  9998,2 51802  53.2185 126.3695 0001933  48.9440  47.0977 15.08810639 13491,6917.97,95.439,541.172,538.498,0.0
51802.0,STARLINK-3557,PAYLOAD,2022-05-15 22:00:00,15.08822024,0.0001953,53.2186,125.9954,50.7847,138.1477,0.0021754,0.00034486,0.0,0 STARLINK-3557,1 51802U 22017AL  22135.91667824  .00034486  00000-0  21754-2 0  9990,2 51802  53.2186 125.9954 0001953  50.7847 138.1477 15.08822024  1304,6917.935,95.439,541.151,538.4490000000002,0.0
51802.0,STARLINK-3557,PAYLOAD,2022-05-16 12:00:00,15.08838102,0.0002164,53.2183,123.3786,44.8122,74.4004,0.00077245,0.00012026,0.0,0 STARLINK-3557,1 51802U 22017AL  22136.50001157  .00012026  00000-0  77245-3 0  9990,2 51802  53.2183 123.3786 0002164  44.8122  74.4004 15.08838102 13597,6917.886,95.438,541.248,538.254,0.0
